STARLINK-37804          
1 69302U 26119G   26176.03524132  .00052827  00000+0  96509-3 0  9996
2 69302  97.2872 201.7752 0000401  87.9923 272.1375 15.49230161  5244
STARLINK-37730          
1 69303U 26119H   26176.16667823 -.02350205  00000+0 -72182-1 0  9990
2 69303  97.2855 202.1375 0001829  68.7594 103.1963 15.37345785  5329
STARLINK-37731          
1 69304U 26119J   26176.03631771  .00041501  00000+0  75992-3 0  9996
2 69304  97.2870 201.7740 0000883  52.4966 307.6366 15.49219281  5243
STARLINK-37734          
1 69305U 26119K   26176.03042284 -.00547944  00000+0 -11650-1 0  9995
2 69305  97.2866 201.9342 0012465  88.2747 271.9930 15.46858103  5252
STARLINK-37701          
1 69306U 26119L   26176.16667823 -.02563005  00000+0 -61072-1 0  9993
2 69306  97.2850 202.1308 0002506  72.8191 104.3742 15.45261806  5323
STARLINK-37732          
1 69307U 26119M   26176.16667823 -.00028743  00000+0 -89153-3 0  9999
2 69307  97.2848 202.1581 0001294  85.2206 151.8685 15.33439406  5325
STARLINK-37689          
1 69308U 26119N   26176.03288448  .00053412  00000+0  97568-3 0  9996
2 69308  97.2845 201.7765 0000145 198.7771 161.3475 15.49230409  5246
STARLINK-37619          
1 69309U 26119P   26176.16667823 -.00027770  00000+0 -76940-3 0  9990
2 69309  97.2854 202.1515 0001391  63.5584 161.3227 15.36978626  5320
STARLINK-37794          
1 69310U 26119Q   26176.03114891  .00147605  00000+0  26251-2 0  9997
2 69310  97.2861 201.9336 0000616 115.5574 244.5741 15.49621709  5252
STARLINK-37795          
1 69311U 26119R   26175.31781791  .00038586  00000+0  70718-3 0  9992
2 69311  97.2848 201.0650 0000208 230.3114 129.8119 15.49208827  5134
STARLINK-37790          
1 69312U 26119S   26176.16667823 -.00062058  00000+0 -11472-2 0  9990
2 69312  97.2855 202.1323 0001213  86.6050  91.8632 15.49219190  5324
STARLINK-37676          
1 69313U 26119T   26176.16667823 -.02834406  00000+0 -89838-1 0  9997
2 69313  97.2847 202.1990 0001191  69.0813 255.3456 15.36475991  5323
STARLINK-37617          
1 69314U 26119U   26176.16667823 -.00011817  00000+0 -21599-3 0  9991
2 69314  97.2858 202.1380 0000431 102.7412  92.2277 15.49182840  5326
STARLINK-37627          
1 69315U 26119V   26176.16667823 -.00812719  00000+0 -16118-1 0  9991
2 69315  97.2860 202.1417 0001261  96.9490 108.8342 15.49504142  5323
STARLINK-37738          
1 69316U 26119W   26176.16667823  .00005477  00000+0  10240-3 0  9997
2 69316  97.2854 202.1432 0001476  88.8245 115.7816 15.49161810  5324
STARLINK-37799          
1 69317U 26119X   26176.16667823 -.02972484  00000+0 -94245-1 0  9998
2 69317  97.2851 202.2241 0002206  62.8924 321.4071 15.36647093  5270
STARLINK-37802          
1 69318U 26119Y   26176.16667823 -.02722333  00000+0 -60922-1 0  9990
2 69318  97.2847 202.1990 0000800  84.1716 255.6919 15.47333359  5324
STARLINK-37803          
1 69319U 26119Z   26176.16667823 -.00002366  00000+0 -41869-4 0  9998
2 69319  97.2858 202.0687 0000882  82.5866 307.4704 15.49175761  5272
GUOWANG TEST OBJECT A   
1 69320U 26120A   26172.81697494  .00008673  00000+0  23140-3 0  9993
2 69320  55.0017   6.9033 0011359 337.7695  22.2839 15.38939558  3409
GUOWANG TEST OBJECT B   
1 69321U 26120B   26176.19319351  .00014698  00000+0  38505-3 0  9997
2 69321  54.9979 351.6908 0011280 351.4880   8.5955 15.38922359  3922
GUOWANG TEST OBJECT C   
1 69322U 26120C   26175.21033880  .00011605  00000+0  29858-3 0  9996
2 69322  54.9992 356.0264 0011909 355.5868   4.5054 15.39699135  3774
GUOWANG TEST OBJECT D   
1 69323U 26120D   26175.21522844  .00008472  00000+0  22813-3 0  9992
2 69323  54.9978 356.0543 0012199   2.1203 357.9875 15.38678599  3775
QIANFAN-163             
1 69325U 26121A   26171.83152253  .00000035  00000+0  30105-4 0  9993
2 69325  89.0159 300.1473 0020476 178.2353 181.8879 13.59758614  2659
QIANFAN-164             
1 69326U 26121B   26162.41240743  .00000110  00000+0  12976-3 0  9999
2 69326  89.0157 301.0998 0019383 205.3124 154.7084 13.60355100  1373
SZ-22 MODULE            
1 69328U 25272C   26174.76837442  .00017175  00000+0  20641-3 0  9993
2 69328  41.4798 282.0925 0006557 143.8557 216.2726 15.60443962  4355
STARLINK-37733          
1 69329U 26122A   26176.16667823 -.00001934  00000+0 -33917-4 0  9998
2 69329  97.2848 205.8666 0001363  91.6583 304.6203 15.49179444  4636
STARLINK-37772          
1 69330U 26122B   26176.16667823  .00009669  00000+0  17934-3 0  9991
2 69330  97.2852 205.9011 0001825  84.4307  31.6556 15.49169223  4581
STARLINK-37768          
1 69331U 26122C   26176.16667823 -.00008306  00000+0 -15128-3 0  9994
2 69331  97.2849 205.7938 0001214  81.7139 142.4919 15.49177647  4582
STARLINK-37833          
1 69332U 26122D   26176.16667823  .00007446  00000+0  13852-3 0  9999
2 69332  97.2851 205.8664 0001303  78.7169 314.9534 15.49172417  4580
