OBJECT_NAME,OBJECT_ID,EPOCH,MEAN_MOTION,ECCENTRICITY,INCLINATION,RA_OF_ASC_NODE,ARG_OF_PERICENTER,MEAN_ANOMALY,EPHEMERIS_TYPE,CLASSIFICATION_TYPE,NORAD_CAT_ID,ELEMENT_SET_NO,REV_AT_EPOCH,BSTAR,MEAN_MOTION_DOT,MEAN_MOTION_DDOT
STARLINK-37804,2026-119G,2026-06-25T00:50:44.850048,15.49230161,.0000401,97.2872,201.7752,87.9923,272.1375,0,U,69302,999,524,.96509E-3,.52827E-3,0
STARLINK-37730,2026-119H,2026-06-25T04:00:00.999072,15.37345785,.0001829,97.2855,202.1375,68.7594,103.1963,0,U,69303,999,532,-.72182E-1,-.2350205E-1,0
STARLINK-37731,2026-119J,2026-06-25T00:52:17.850144,15.49219281,.0000883,97.2870,201.7740,52.4966,307.6366,0,U,69304,999,524,.75992E-3,.41501E-3,0
STARLINK-37734,2026-119K,2026-06-25T00:43:48.533376,15.46858103,.0012465,97.2866,201.9342,88.2747,271.9930,0,U,69305,999,525,-.1165E-1,-.547944E-2,0
STARLINK-37701,2026-119L,2026-06-25T04:00:00.999072,15.45261806,.0002506,97.2850,202.1308,72.8191,104.3742,0,U,69306,999,532,-.61072E-1,-.2563005E-1,0
STARLINK-37732,2026-119M,2026-06-25T04:00:00.999072,15.33439406,.0001294,97.2848,202.1581,85.2206,151.8685,0,U,69307,999,532,-.89153E-3,-.28743E-3,0
STARLINK-37689,2026-119N,2026-06-25T00:47:21.219072,15.49230409,.0000145,97.2845,201.7765,198.7771,161.3475,0,U,69308,999,524,.97568E-3,.53412E-3,0
STARLINK-37619,2026-119P,2026-06-25T04:00:00.999072,15.36978626,.0001391,97.2854,202.1515,63.5584,161.3227,0,U,69309,999,532,-.7694E-3,-.2777E-3,0
STARLINK-37794,2026-119Q,2026-06-25T00:44:51.265824,15.49621709,.0000616,97.2861,201.9336,115.5574,244.5741,0,U,69310,999,525,.26251E-2,.147605E-2,0
STARLINK-37795,2026-119R,2026-06-24T07:37:39.467424,15.49208827,.0000208,97.2848,201.0650,230.3114,129.8119,0,U,69311,999,513,.70718232E-3,.38586E-3,0
STARLINK-37790,2026-119S,2026-06-25T04:00:00.999072,15.49219190,.0001213,97.2855,202.1323,86.6050,91.8632,0,U,69312,999,532,-.11472E-2,-.62058E-3,0
STARLINK-37676,2026-119T,2026-06-25T04:00:00.999072,15.36475991,.0001191,97.2847,202.1990,69.0813,255.3456,0,U,69313,999,532,-.89838E-1,-.2834406E-1,0
STARLINK-37617,2026-119U,2026-06-25T04:00:00.999072,15.49182840,.0000431,97.2858,202.1380,102.7412,92.2277,0,U,69314,999,532,-.21599E-3,-.11817E-3,0
STARLINK-37627,2026-119V,2026-06-25T04:00:00.999072,15.49504142,.0001261,97.2860,202.1417,96.9490,108.8342,0,U,69315,999,532,-.16118E-1,-.812719E-2,0
STARLINK-37738,2026-119W,2026-06-25T04:00:00.999072,15.49161810,.0001476,97.2854,202.1432,88.8245,115.7816,0,U,69316,999,532,.1024E-3,.5477E-4,0
STARLINK-37799,2026-119X,2026-06-25T04:00:00.999072,15.36647093,.0002206,97.2851,202.2241,62.8924,321.4071,0,U,69317,999,527,-.94245E-1,-.2972484E-1,0
STARLINK-37802,2026-119Y,2026-06-25T04:00:00.999072,15.47333359,.00008,97.2847,202.1990,84.1716,255.6919,0,U,69318,999,532,-.60922E-1,-.2722333E-1,0
STARLINK-37803,2026-119Z,2026-06-25T04:00:00.999072,15.49175761,.0000882,97.2858,202.0687,82.5866,307.4704,0,U,69319,999,527,-.41869E-4,-.2366E-4,0
GUOWANG TEST OBJECT A,2026-120A,2026-06-21T19:36:26.634816,15.38939558,.00113591,55.0017,6.9033,337.7695,22.2839,0,U,69320,999,340,.23139514E-3,.8673E-4,0
GUOWANG TEST OBJECT B,2026-120B,2026-06-25T04:38:11.919264,15.38922359,.001128,54.9979,351.6908,351.4880,8.5955,0,U,69321,999,392,.38505E-3,.14698E-3,0
GUOWANG TEST OBJECT C,2026-120C,2026-06-24T05:02:53.272320,15.39699135,.00119095,54.9992,356.0264,355.5868,4.5054,0,U,69322,999,377,.29857847E-3,.11605E-3,0
GUOWANG TEST OBJECT D,2026-120D,2026-06-24T05:09:55.737216,15.38678599,.00121998,54.9978,356.0543,2.1203,357.9875,0,U,69323,999,377,.22812599E-3,.8472E-4,0
QIANFAN-163,2026-121A,2026-06-20T19:57:23.546592,13.59758614,.00204763,89.0159,300.1473,178.2353,181.8879,0,U,69325,999,265,.30105417E-4,.35E-6,0
QIANFAN-164,2026-121B,2026-06-11T09:53:52.001952,13.60355100,.0019383,89.0157,301.0998,205.3124,154.7084,0,U,69326,999,137,.12975542E-3,.11E-5,0
SZ-22 MODULE,2025-272C,2026-06-23T18:26:27.549888,15.60443962,.00065577,41.4798,282.0925,143.8557,216.2726,0,U,69328,999,435,.20640767E-3,.17175E-3,0
STARLINK-37733,2026-122A,2026-06-25T04:00:00.999072,15.49179444,.0001363,97.2848,205.8666,91.6583,304.6203,0,U,69329,999,463,-.33917E-4,-.1934E-4,0
STARLINK-37772,2026-122B,2026-06-25T04:00:00.999072,15.49169223,.0001825,97.2852,205.9011,84.4307,31.6556,0,U,69330,999,458,.17934E-3,.9669E-4,0
STARLINK-37768,2026-122C,2026-06-25T04:00:00.999072,15.49177647,.0001214,97.2849,205.7938,81.7139,142.4919,0,U,69331,999,458,-.15128E-3,-.8306E-4,0
STARLINK-37833,2026-122D,2026-06-25T04:00:00.999072,15.49172417,.0001303,97.2851,205.8664,78.7169,314.9534,0,U,69332,999,458,.13852E-3,.7446E-4,0
